NORAD_CAT_ID,OBJECT_NAME,OBJECT_TYPE,EPOCH,MEAN_MOTION,ECCENTRICITY,INCLINATION,RA_OF_ASC_NODE,ARG_OF_PERICENTER,MEAN_ANOMALY,BSTAR,MEAN_MOTION_DOT,MEAN_MOTION_DDOT,TLE_LINE0,TLE_LINE1,TLE_LINE2,SEMIMAJOR_AXIS,PERIOD,APOGEE,PERIGEE,DECAYED
52297.0,STARLINK-3758,PAYLOAD,2024-05-02 12:12:09,15.08834476,0.0001426,53.2196,254.6162,91.7101,268.4055,-3.1728e-05,-7.93e-06,0.0,0 STARLINK-3758,1 52297U 22041AN  24123.50844579 -.00000793  00000-0 -31728-4 0  9994,2 52297  53.2196 254.6162 0001426  91.7101 268.4055 15.08834476113642,6917.897,95.438,540.749,538.776,0.0
52297.0,STARLINK-3758,PAYLOAD,2024-05-02 13:47:32,15.08834187,0.0001244,53.2182,254.3181,94.9799,265.1335,-3.0519e-05,-7.73e-06,0.0,0 STARLINK-3758,1 52297U 22041AN  24123.57468566 -.00000773  00000-0 -30519-4 0  9994,2 52297  53.2182 254.3181 0001244  94.9799 265.1335 15.08834187112431,6917.898,95.438,540.624,538.903,0.0
52297.0,STARLINK-3758,PAYLOAD,2024-05-03 13:38:19,15.08841979,0.0001197,53.2161,249.8599,86.8703,273.2426,6.7771e-05,7.91e-06,0.0,0 STARLINK-3758,1 52297U 22041AN  24124.56827766  .00000791  00000-0  67771-4 0  9993,2 52297  53.2161 249.8599 0001197  86.8703 273.2426 15.08841979113802,6917.874,95.437,540.567,538.911,0.0
52297.0,STARLINK-3758,PAYLOAD,2024-05-03 15:13:42,15.08844342,0.0001201,53.2164,249.5617,88.5667,271.5462,8.6729e-05,1.093e-05,0.0,0 STARLINK-3758,1 52297U 22041AN  24124.63451543  .00001093  00000-0  86729-4 0  9997,2 52297  53.2164 249.5617 0001201  88.5667 271.5462 15.08844342112590,6917.867,95.437,540.563,538.901,0.0
52297.0,STARLINK-3758,PAYLOAD,2024-05-03 18:24:27,15.08859661,0.0001679,53.2173,248.9665,96.8966,263.2217,-7.1461e-05,-1.426e-05,0.0,0 STARLINK-3758,1 52297U 22041AN  24124.76698998 -.00001426  00000-0 -71461-4 0  9997,2 52297  53.2173 248.9665 0001679  96.8966 263.2217 15.08859661113833,6917.82,95.436,540.847,538.524,0.0
52297.0,STARLINK-3758,PAYLOAD,2024-05-04 00:45:59,15.08882616,0.0001501,53.2185,247.7781,100.1753,259.9409,-0.00023675,-4.058e-05,0.0,0 STARLINK-3758,1 52297U 22041AN  24125.03193351 -.00004058  00000-0 -23675-3 0  9998,2 52297  53.2185 247.7781 0001501 100.1753 259.9409 15.08882616113874,6917.75,95.435,540.653,538.577,0.0
52297.0,STARLINK-3758,PAYLOAD,2024-05-04 13:29:07,15.08821839,0.000147,53.2169,245.3989,101.1231,258.9927,-5.1013e-05,-1.099e-05,0.0,0 STARLINK-3758,1 52297U 22041AN  24125.56189210 -.00001099  00000-0 -51013-4 0  9995,2 52297  53.2169 245.3989 0001470 101.1231 258.9927 15.08821839113950,6917.936,95.439,540.818,538.784,0.0
52297.0,STARLINK-3758,PAYLOAD,2024-05-05 00:36:49,15.08834888,0.0001532,53.2179,243.3187,101.4939,258.6225,5.722e-05,6.23e-06,0.0,0 STARLINK-3758,1 52297U 22041AN  24126.02556806  .00000623  00000-0  57220-4 0  9992,2 52297  53.2179 243.3187 0001532 101.4939 258.6225 15.08834888114021,6917.896,95.438,540.821,538.701,0.0
52297.0,STARLINK-3758,PAYLOAD,2024-05-05 13:19:54,15.08848258,0.0001398,53.2174,240.9398,105.6494,254.4652,0.0010807,0.00016957,0.0,0 STARLINK-3758,1 52297U 22041AN  24126.55548901  .00016957  00000-0  10807-2 0  9992,2 52297  53.2174 240.9398 0001398 105.6494 254.4652 15.08848258112881,6917.855,95.437,540.687,538.753,0.0
52297.0,STARLINK-3758,PAYLOAD,2024-05-06 13:10:40,15.08855808,0.0001324,53.2174,236.4795,93.9426,266.1718,0.00063775,9.881e-05,0.0,0 STARLINK-3758,1 52297U 22041AN  24127.54908174  .00009881  00000-0  63775-3 0  9995,2 52297  53.2174 236.4795 0001324  93.9426 266.1718 15.08855808114250,6917.832,95.437,540.613,538.781,0.0
52297.0,STARLINK-3758,PAYLOAD,2024-05-06 14:46:03,15.08859523,0.0001267,53.2173,236.1822,93.6125,266.5012,0.0008482,0.00013244,0.0,0 STARLINK-3758,1 52297U 22041AN  24127.61532093  .00013244  00000-0  84820-3 0  9998,2 52297  53.2173 236.1822 0001267  93.6125 266.5012 15.08859523113041,6917.821,95.436,540.562,538.809,0.0
52297.0,STARLINK-3758,PAYLOAD,2024-05-07 13:01:28,15.08813849,0.0001142,53.2165,232.0192,71.07,289.0416,0.0011741,0.00018434,0.0,0 STARLINK-3758,1 52297U 22041AN  24128.54269195  .00018434  00000-0  11741-2 0  9998,2 52297  53.2165 232.0192 0001142  71.0700 289.0416 15.08813849114408,6917.96,95.439,540.615,539.035,0.0
52297.0,STARLINK-3758,PAYLOAD,2024-05-07 14:36:51,15.08813266,0.0001237,53.2154,231.7214,66.8508,293.2614,0.0014584,0.00022982,0.0,0 STARLINK-3758,1 52297U 22041AN  24128.60893341  .00022982  00000-0  14584-2 0  9992,2 52297  53.2154 231.7214 0001237  66.8508 293.2614 15.08813266113195,6917.962,95.439,540.683,538.971,0.0
52297.0,STARLINK-3758,PAYLOAD,2024-05-08 12:52:15,15.08865154,0.0001396,53.2155,227.5588,63.2257,296.8878,0.0019491,0.0003089,0.0,0 STARLINK-3758,1 52297U 22041AN  24129.53629442  .00030890  00000-0  19491-2 0  9993,2 52297  53.2155 227.5588 0001396  63.2257 296.8878 15.08865154113331,6917.804,95.436,540.634,538.703,0.0
52297.0,STARLINK-3758,PAYLOAD,2024-05-08 23:59:57,15.08880589,0.0001366,53.2157,225.477,62.2018,297.9112,0.0016598,0.00026256,0.0,0 STARLINK-3758,1 52297U 22041AN  24129.99996555  .00026256  00000-0  16598-2 0  9991,2 52297  53.2157 225.4770 0001366  62.2018 297.9112 15.08880589114629,6917.756,95.435,540.566,538.676,0.0
52297.0,STARLINK-3758,PAYLOAD,2024-05-09 12:43:02,15.08845816,0.0001234,53.2163,223.0983,76.2394,283.8736,0.0018227,0.00028844,0.0,0 STARLINK-3758,1 52297U 22041AN  24130.52988809  .00028844  00000-0  18227-2 0  9991,2 52297  53.2163 223.0983 0001234  76.2394 283.8736 15.08845816114701,6917.863,95.437,540.581,538.874,0.0
52297.0,STARLINK-3758,PAYLOAD,2024-05-10 12:33:49,15.0884689,0.000117,53.2164,218.6373,80.5757,279.5367,0.00091669,0.00014334,0.0,0 STARLINK-3758,1 52297U 22041AN  24131.52348769  .00014334  00000-0  91669-3 0  9998,2 52297  53.2164 218.6373 0001170  80.5757 279.5367 15.08846890114856,6917.859,95.437,540.534,538.915,0.0
52297.0,STARLINK-3758,PAYLOAD,2024-05-11 12:24:33,15.08976955,0.0001461,53.2171,214.1782,92.2256,267.8904,0.005953,0.00096108,0.0,0 STARLINK-3758,1 52297U 22041AN  24132.51705947  .00096108  00000-0  59530-2 0  9992,2 52297  53.2171 214.1782 0001461  92.2256 267.8904 15.08976955115007,6917.462,95.429,540.337,538.316,0.0
52297.0,STARLINK-3758,PAYLOAD,2024-05-11 21:56:52,15.08908404,0.0002453,53.2155,212.3917,57.6907,302.4322,0.0011739,0.00018479,0.0,0 STARLINK-3758,1 52297U 22041AN  24132.91449251  .00018479  00000-0  11739-2 0  9993,2 52297  53.2155 212.3917 0002453  57.6907 302.4322 15.08908404113843,6917.671,95.433,541.233,537.839,0.0
52297.0,STARLINK-3758,PAYLOAD,2024-05-12 14:00:01,15.08684735,0.0001187,53.2156,209.3925,68.991,325.9492,0.012115,0.00197131,0.0,0 STARLINK-3758,1 52297U 22041AN  24133.58334491  .00197131  00000-0  12115-1 0  9997,2 52297  53.2156 209.3925 0001187  68.9910 325.9492 15.08684735115175,6918.355,95.447,541.041,539.399,0.0
52297.0,STARLINK-3758,PAYLOAD,2024-05-12 21:47:45,15.08747587,0.0001235,53.2168,207.9321,82.7395,277.3737,0.0015423,0.00024281,0.0,0 STARLINK-3758,1 52297U 22041AN  24133.90816080  .00024281  00000-0  15423-2 0  9993,2 52297  53.2168 207.9321 0001235  82.7395 277.3737 15.08747587113992,6918.163,95.443,540.882,539.173,0.0
52297.0,STARLINK-3758,PAYLOAD,2024-05-13 04:09:17,15.0878488,5.48e-05,53.2158,206.74,302.3835,57.7104,0.0017831,0.00028161,0.0,0 STARLINK-3758,1 52297U 22041AN  24134.17312288  .00028161  00000-0  17831-2 0  9990,2 52297  53.2158 206.7400 0000548 302.3835  57.7104 15.08784880115258,6918.049,95.441,540.293,539.535,0.0
52297.0,STARLINK-3758,PAYLOAD,2024-05-13 12:06:13,15.08851233,0.0001299,53.2155,205.2568,65.104,295.0087,0.0015148,0.0002391,0.0,0 STARLINK-3758,1 52297U 22041AN  24134.50432138  .00023910  00000-0  15148-2 0  9990,2 52297  53.2155 205.2568 0001299  65.1040 295.0087 15.08851233115300,6917.846,95.437,540.61,538.812,0.0
52297.0,STARLINK-3758,PAYLOAD,2024-05-13 13:41:36,15.08855769,0.0001219,53.2153,204.9594,61.3963,298.7151,0.0011915,0.00018734,0.0,0 STARLINK-3758,1 52297U 22041AN  24134.57055973  .00018734  00000-0  11915-2 0  9991,2 52297  53.2153 204.9594 0001219  61.3963 298.7151 15.08855769114092,6917.832,95.437,540.54,538.854,0.0
52297.0,STARLINK-3758,PAYLOAD,2024-05-14 04:00:03,15.08865602,0.0001314,53.2154,202.2835,64.0081,296.1046,0.00070286,0.00010924,0.0,0 STARLINK-3758,1 52297U 22041AN  24135.16671205  .00010924  00000-0  70286-3 0  9999,2 52297  53.2154 202.2835 0001314  64.0081 296.1046 15.08865602115407,6917.802,95.436,540.576,538.758,0.0
52297.0,STARLINK-3758,PAYLOAD,2024-05-14 11:56:59,15.08848715,0.0001215,53.2151,200.7961,68.7136,291.3985,0.00034653,5.233e-05,0.0,0 STARLINK-3758,1 52297U 22041AN  24135.49791434  .00005233  00000-0  34653-3 0  9997,2 52297  53.2151 200.7961 0001215  68.7136 291.3985 15.08848715115459,6917.854,95.437,540.559,538.878,0.0
52297.0,STARLINK-3758,PAYLOAD,2024-05-14 13:32:23,15.08843692,0.0001261,53.2155,200.4993,67.1373,292.9753,0.00056865,8.775e-05,0.0,0 STARLINK-3758,1 52297U 22041AN  24135.56415749  .00008775  00000-0  56865-3 0  9990,2 52297  53.2155 200.4993 0001261  67.1373 292.9753 15.08843692114247,6917.869,95.437,540.606,538.862,0.0
52297.0,STARLINK-3758,PAYLOAD,2024-05-14 21:29:18,15.08846805,0.000131,53.2156,199.0123,64.764,295.3488,0.00022977,3.371e-05,0.0,0 STARLINK-3758,1 52297U 22041AN  24135.89535399  .00003371  00000-0  22977-3 0  9994,2 52297  53.2156 199.0123 0001310  64.7640 295.3488 15.08846805114297,6917.86,95.437,540.631,538.818,0.0
52297.0,STARLINK-3758,PAYLOAD,2024-05-15 13:23:08,15.08867997,0.0001351,53.216,196.0356,68.1536,291.96,0.00054413,8.389e-05,0.0,0 STARLINK-3758,1 52297U 22041AN  24136.55774053  .00008389  00000-0  54413-3 0  9994,2 52297  53.2160 196.0356 0001351  68.1536 291.9600 15.08867997114398,6917.795,95.436,540.594,538.725,0.0
52297.0,STARLINK-3758,PAYLOAD,2024-05-15 21:20:03,15.08875794,0.0001482,53.2158,194.5511,64.8385,295.2761,0.00054749,8.445e-05,0.0,0 STARLINK-3758,1 52297U 22041AN  24136.88893249  .00008445  00000-0  54749-3 0  9994,2 52297  53.2158 194.5511 0001482  64.8385 295.2761 15.08875794115661,6917.771,95.435,540.661,538.611,0.0
